IRIDIUM 155             
1 43573U 18061E   22050.87743721  .00000093  00000+0  26311-4 0  9994
2 43573  86.4013 356.2834 0002515  90.4893 269.6590 14.34216048187133
IRIDIUM 154             
1 43574U 18061F   22050.92817682  .00000119  00000+0  35607-4 0  9996
2 43574  86.4017 356.3201 0001843  86.0492 274.0914 14.34215239187193
IRIDIUM 163             
1 43575U 18061G   22050.90913729  .00000139  00000+0  42680-4 0  9995
2 43575  86.4017 356.2918 0002153  74.1933 285.9500 14.34214898187160
IRIDIUM 156             
1 43576U 18061H   22051.37216117  .00000142  00000+0  43659-4 0  9996
2 43576  86.4016 356.1037 0002414  80.5341 279.6127 14.34215294187217
IRIDIUM 164             
1 43577U 18061J   22051.56241987  .00000156  00000+0  48566-4 0  9998
2 43577  86.4016 356.0404 0001895  82.3885 277.7526 14.34221179187299
IRIDIUM 159             
1 43578U 18061K   22051.39118119  .00000151  00000+0  46888-4 0  9990
2 43578  86.4015 356.0820 0001909  85.2042 274.9372 14.34221609187234
IRIDIUM 180             
1 43922U 19002A   22051.39067194  .00000168  00000+0  52763-4 0  9992
2 43922  86.3953 292.9521 0001345  73.7487 286.3856 14.34214648162885
IRIDIUM 176             
1 43923U 19002B   22051.08471422  .00000373  00000+0  55270-4 0  9996
2 43923  86.6088 293.1151 0002292  92.5121 267.6359 14.72252768167068
IRIDIUM 168             
1 43924U 19002C   22051.59364263  .00000148  00000+0  45648-4 0  9995
2 43924  86.3955 292.9001 0001750  87.4840 272.6556 14.34218351162854
IRIDIUM 173             
1 43925U 19002D   22050.74373625  .00000148  00000+0  45935-4 0  9993
2 43925  86.3953 293.2085 0001804  84.7526 275.3876 14.34216287162716
IRIDIUM 169             
1 43926U 19002E   22051.44914076  .00000193  00000+0  56410-4 0  9993
2 43926  86.4258 324.5228 0006255 122.0289 238.1518 14.38613795163394
IRIDIUM 172             
1 43927U 19002F   22050.73739223  .00000078  00000+0  20727-4 0  9998
2 43927  86.3955 293.2144 0001735  83.4075 276.7318 14.34215382162726
IRIDIUM 175             
1 43928U 19002G   22050.94258847  .00000371  00000+0  54977-4 0  9990
2 43928  86.6091 293.0015 0002002  83.3542 276.7902 14.72261127167030
IRIDIUM 171             
1 43929U 19002H   22051.41605862  .00000147  00000+0  45522-4 0  9994
2 43929  86.3962 293.0617 0001743  88.0986 272.0410 14.34217223162818
IRIDIUM 170             
1 43930U 19002J   22050.75106831  .00000414  00000+0  61707-4 0  9994
2 43930  86.6089 293.2603 0002127  91.2001 268.9460 14.72251316167021
IRIDIUM 167             
1 43931U 19002K   22051.13063860  .00000139  00000+0  42412-4 0  9998
2 43931  86.3954 293.0583 0001468  82.0467 278.0896 14.34219745162776
